start=new Date('2022-08-13T00:00:00.000Z').valueOf();
sats=[{"COUNTRY_CODE":"US","REV_AT_EPOCH":"8136","RA_OF_ASC_NODE":"289.9425","EPOCH":"2022-08-12T16:52:38.399808","RCS_SIZE":"LARGE","EPHEMERIS_TYPE":"0","NORAD_CAT_ID":"47769","MEAN_MOTION":"15.06405345","SITE":"AFETR","CLASSIFICATION_TYPE":"U","ECCENTRICITY":"0.00014670","PERIOD":"95.592","CENTER_NAME":"EARTH","SEMIMAJOR_AXIS":"6925.332","MEAN_MOTION_DOT":"0.00009539","LAUNCH_DATE":"2021-03-04","TLE_LINE2":"2 47769  53.0538 289.9425 0001467  72.2039 287.9110 15.06405345 81368","GP_ID":"210105450","ELEMENT_SET_NO":"999","TLE_LINE1":"1 47769U 21017AZ  22224.70322222  .00009539  00000-0  65831-3 0  9998","REF_FRAME":"TEME","OBJECT_NAME":"STARLINK-2192","MEAN_ANOMALY":"287.9110","FILE":"3535519","BSTAR":"0.00065831000000","TIME_SYSTEM":"UTC","OBJECT_TYPE":"PAYLOAD","MEAN_ELEMENT_THEORY":"SGP4","ARG_OF_PERICENTER":"72.2039","DECAY_DATE":null,"OBJECT_ID":"2021-017AZ","APOAPSIS":"548.213","INCLINATION":"53.0538","PERIAPSIS":"546.181","MEAN_MOTION_DDOT":"0.0000000000000"},{"COUNTRY_CODE":"US","REV_AT_EPOCH":"8112","RA_OF_ASC_NODE":"305.1879","EPOCH":"2022-08-12T15:28:22.518048","RCS_SIZE":"LARGE","EPHEMERIS_TYPE":"0","NORAD_CAT_ID":"47770","MEAN_MOTION":"15.06394926","CLASSIFICATION_TYPE":"U","SITE":"AFETR","ECCENTRICITY":"0.00014830","PERIOD":"95.592","CENTER_NAME":"EARTH","SEMIMAJOR_AXIS":"6925.364","MEAN_MOTION_DOT":"0.00005781","LAUNCH_DATE":"2021-03-04","TLE_LINE2":"2 47770  53.0541 305.1879 0001483  73.1208 286.9943 15.06394926 81123","GP_ID":"210105701","ELEMENT_SET_NO":"999","TLE_LINE1":"1 47770U 21017BA  22224.64470507  .00005781  00000-0  40673-3 0  9995","REF_FRAME":"TEME","OBJECT_NAME":"STARLINK-2193","MEAN_ANOMALY":"286.9943","FILE":"3535519","BSTAR":"0.00040673000000","TIME_SYSTEM":"UTC","OBJECT_TYPE":"PAYLOAD","ARG_OF_PERICENTER":"73.1208","MEAN_ELEMENT_THEORY":"SGP4","DECAY_DATE":null,"OBJECT_ID":"2021-017BA","APOAPSIS":"548.256","INCLINATION":"53.0541","PERIAPSIS":"546.202","MEAN_MOTION_DDOT":"0.0000000000000"},{"REV_AT_EPOCH":"8114","RA_OF_ASC_NODE":"304.8569","COUNTRY_CODE":"US","RCS_SIZE":"LARGE","EPOCH":"2022-08-12T17:19:49.702656","EPHEMERIS_TYPE":"0","MEAN_MOTION":"15.06419623","NORAD_CAT_ID":"47771","CLASSIFICATION_TYPE":"U","SITE":"AFETR","ECCENTRICITY":"0.00013280","PERIOD":"95.591","CENTER_NAME":"EARTH","SEMIMAJOR_AXIS":"6925.288","GP_ID":"210106452","TLE_LINE2":"2 47771  53.0546 304.8569 0001328  78.8908 281.2230 15.06419623 81149","MEAN_MOTION_DOT":"0.00011692","LAUNCH_DATE":"2021-03-04","TLE_LINE1":"1 47771U 21017BB  22224.72210304  .00011692  00000-0  80210-3 0  9991","ELEMENT_SET_NO":"999","REF_FRAME":"TEME","OBJECT_NAME":"STARLINK-2194","MEAN_ANOMALY":"281.2230","FILE":"3535519","TIME_SYSTEM":"UTC","BSTAR":"0.00080210000000","ARG_OF_PERICENTER":"78.8908","MEAN_ELEMENT_THEORY":"SGP4","OBJECT_TYPE":"PAYLOAD","OBJECT_ID":"2021-017BB","DECAY_DATE":null,"APOAPSIS":"548.073","INCLINATION":"53.0546","PERIAPSIS":"546.234","MEAN_MOTION_DDOT":"0.0000000000000"},{"LAUNCH_DATE":"2021-03-04","MEAN_MOTION_DOT":"0.00006644","TLE_LINE2":"2 47772  53.0548 320.2025 0001208  87.8769 272.2358 15.06396839 80898","GP_ID":"210104700","ELEMENT_SET_NO":"999","TLE_LINE1":"1 47772U 21017BC  22224.64516917  .00006644  00000-0  46457-3 0  9998","REF_FRAME":"TEME","PERIOD":"95.592","CENTER_NAME":"EARTH","SEMIMAJOR_AXIS":"6925.358","SITE":"AFETR","CLASSIFICATION_TYPE":"U","ECCENTRICITY":"0.00012080","COUNTRY_CODE":"US","REV_AT_EPOCH":"8089","RA_OF_ASC_NODE":"320.2025","EPHEMERIS_TYPE":"0","RCS_SIZE":"LARGE","EPOCH":"2022-08-12T15:29:02.616288","NORAD_CAT_ID":"47772","MEAN_MOTION":"15.06396839","PERIAPSIS":"546.387","MEAN_MOTION_DDOT":"0.0000000000000","DECAY_DATE":null,"OBJECT_ID":"2021-017BC","APOAPSIS":"548.060","INCLINATION":"53.0548","BSTAR":"0.00046457000000","TIME_SYSTEM":"UTC","OBJECT_TYPE":"PAYLOAD","ARG_OF_PERICENTER":"87.8769","MEAN_ELEMENT_THEORY":"SGP4","OBJECT_NAME":"STARLINK-2195","MEAN_ANOMALY":"272.2358","FILE":"3535519"},{"DECAY_DATE":null,"OBJECT_ID":"2021-017BD","APOAPSIS":"548.130","INCLINATION":"53.0554","PERIAPSIS":"546.310","MEAN_MOTION_DDOT":"0.0000000000000","OBJECT_NAME":"STARLINK-2196","MEAN_ANOMALY":"289.5564","FILE":"3535350","BSTAR":"0.00025151000000","TIME_SYSTEM":"UTC","OBJECT_TYPE":"PAYLOAD","MEAN_ELEMENT_THEORY":"SGP4","ARG_OF_PERICENTER":"70.5567","PERIOD":"95.592","CENTER_NAME":"EARTH","SEMIMAJOR_AXIS":"6925.355","MEAN_MOTION_DOT":"0.00003467","LAUNCH_DATE":"2021-03-04","GP_ID":"210075743","TLE_LINE2":"2 47773  53.0554 320.5114 0001314  70.5567 289.5564 15.06397937 80879","ELEMENT_SET_NO":"999","TLE_LINE1":"1 47773U 21017BD  22224.57511424  .00003467  00000-0  25151-3 0  9997","REF_FRAME":"TEME","COUNTRY_CODE":"US","RA_OF_ASC_NODE":"320.5114","REV_AT_EPOCH":"8087","EPHEMERIS_TYPE":"0","RCS_SIZE":"LARGE","EPOCH":"2022-08-12T13:48:09.870336","NORAD_CAT_ID":"47773","MEAN_MOTION":"15.06397937","SITE":"AFETR","CLASSIFICATION_TYPE":"U","ECCENTRICITY":"0.00013140"},{"FILE":"3535519","MEAN_ANOMALY":"286.0240","OBJECT_NAME":"STARLINK-2197","MEAN_ELEMENT_THEORY":"SGP4","ARG_OF_PERICENTER":"74.0889","OBJECT_TYPE":"PAYLOAD","TIME_SYSTEM":"UTC","BSTAR":"0.00076991000000","INCLINATION":"53.0538","APOAPSIS":"548.038","OBJECT_ID":"2021-017BE","DECAY_DATE":null,"MEAN_MOTION_DDOT":"0.0000000000000","PERIAPSIS":"546.272","MEAN_MOTION":"15.06419191","NORAD_CAT_ID":"47774","RCS_SIZE":"LARGE","EPHEMERIS_TYPE":"0","EPOCH":"2022-08-12T18:29:29.882400","REV_AT_EPOCH":"8091","RA_OF_ASC_NODE":"319.6435","COUNTRY_CODE":"US","ECCENTRICITY":"0.00012750","CLASSIFICATION_TYPE":"U","SITE":"AFETR","SEMIMAJOR_AXIS":"6925.290","CENTER_NAME":"EARTH","PERIOD":"95.591","REF_FRAME":"TEME","TLE_LINE1":"1 47774U 21017BE  22224.77048475  .00011211  00000-0  76991-3 0  9995","ELEMENT_SET_NO":"999","TLE_LINE2":"2 47774  53.0538 319.6435 0001275  74.0889 286.0240 15.06419191 80914","GP_ID":"210106202","LAUNCH_DATE":"2021-03-04","MEAN_MOTION_DOT":"0.00011211"},{"ECCENTRICITY":"0.00013100","CLASSIFICATION_TYPE":"U","SITE":"AFETR","REV_AT_EPOCH":"8094","RA_OF_ASC_NODE":"320.1744","COUNTRY_CODE":"US","MEAN_MOTION":"15.06393338","NORAD_CAT_ID":"47775","RCS_SIZE":"LARGE","EPOCH":"2022-08-12T15:34:20.017920","EPHEMERIS_TYPE":"0","TLE_LINE2":"2 47775  53.0557 320.1744 0001310  75.6963 284.4172 15.06393338 80949","GP_ID":"210105952","MEAN_MOTION_DOT":"0.00001686","LAUNCH_DATE":"2021-03-04","REF_FRAME":"TEME","TLE_LINE1":"1 47775U 21017BF  22224.64884280  .00001686  00000-0  13208-3 0  9991","ELEMENT_SET_NO":"999","PERIOD":"95.593","SEMIMAJOR_AXIS":"6925.369","CENTER_NAME":"EARTH","TIME_SYSTEM":"UTC","BSTAR":"0.00013208000000","MEAN_ELEMENT_THEORY":"SGP4","ARG_OF_PERICENTER":"75.6963","OBJECT_TYPE":"PAYLOAD","MEAN_ANOMALY":"284.4172","OBJECT_NAME":"STARLINK-2198","FILE":"3535519","MEAN_MOTION_DDOT":"0.0000000000000","PERIAPSIS":"546.327","APOAPSIS":"548.141","OBJECT_ID":"2021-017BF","DECAY_DATE":null,"INCLINATION":"53.0557"},{"PERIOD":"95.592","SEMIMAJOR_AXIS":"6925.330","CENTER_NAME":"EARTH","LAUNCH_DATE":"2021-03-04","MEAN_MOTION_DOT":"0.00008491","GP_ID":"210105201","TLE_LINE2":"2 47776  53.0550 310.0607 0001416  75.8169 284.2978 15.06406017 81050","REF_FRAME":"TEME","ELEMENT_SET_NO":"999","TLE_LINE1":"1 47776U 21017BG  22224.67557400  .00008491  00000-0  58814-3 0  9999","COUNTRY_CODE":"US","RA_OF_ASC_NODE":"310.0607","REV_AT_EPOCH":"8105","NORAD_CAT_ID":"47776","MEAN_MOTION":"15.06406017","RCS_SIZE":"LARGE","EPOCH":"2022-08-12T16:12:49.593600","EPHEMERIS_TYPE":"0","ECCENTRICITY":"0.00014160","CLASSIFICATION_TYPE":"U","SITE":"AFETR","APOAPSIS":"548.176","DECAY_DATE":null,"OBJECT_ID":"2021-017BG","INCLINATION":"53.0550","MEAN_MOTION_DDOT":"0.0000000000000","PERIAPSIS":"546.214","MEAN_ANOMALY":"284.2978","OBJECT_NAME":"STARLINK-2209","FILE":"3535519","BSTAR":"0.00058814000000","TIME_SYSTEM":"UTC","OBJECT_TYPE":"PAYLOAD","MEAN_ELEMENT_THEORY":"SGP4","ARG_OF_PERICENTER":"75.8169"},{"OBJECT_ID":"2021-017BH","DECAY_DATE":null,"APOAPSIS":"548.346","INCLINATION":"53.0545","PERIAPSIS":"546.169","MEAN_MOTION_DDOT":"0.0000000000000","OBJECT_NAME":"STARLINK-2210","MEAN_ANOMALY":"299.3550","FILE":"3535519","TIME_SYSTEM":"UTC","BSTAR":"0.00027984000000","ARG_OF_PERICENTER":"60.7596","MEAN_ELEMENT_THEORY":"SGP4","OBJECT_TYPE":"PAYLOAD","PERIOD":"95.593","CENTER_NAME":"EARTH","SEMIMAJOR_AXIS":"6925.393","TLE_LINE2":"2 47777  53.0545 310.3521 0001572  60.7596 299.3550 15.06385621 81042","GP_ID":"210105451","MEAN_MOTION_DOT":"0.00003888","LAUNCH_DATE":"2021-03-04","TLE_LINE1":"1 47777U 21017BH  22224.61291045  .00003888  00000-0  27984-3 0  9993","ELEMENT_SET_NO":"999","REF_FRAME":"TEME","REV_AT_EPOCH":"8104","RA_OF_ASC_NODE":"310.3521","COUNTRY_CODE":"US","RCS_SIZE":"LARGE","EPHEMERIS_TYPE":"0","EPOCH":"2022-08-12T14:42:35.462880","MEAN_MOTION":"15.06385621","NORAD_CAT_ID":"47777","SITE":"AFETR","CLASSIFICATION_TYPE":"U","ECCENTRICITY":"0.00015720"},{"PERIAPSIS":"546.418","MEAN_MOTION_DDOT":"0.0000000000000","INCLINATION":"53.0556","OBJECT_ID":"2021-017BJ","DECAY_DATE":null,"APOAPSIS":"547.984","ARG_OF_PERICENTER":"89.3269","MEAN_ELEMENT_THEORY":"SGP4","OBJECT_TYPE":"PAYLOAD","TIME_SYSTEM":"UTC","BSTAR":"0.00014642000000","FILE":"3535519","OBJECT_NAME":"STARLINK-2211","MEAN_ANOMALY":"270.7850","TLE_LINE1":"1 47778U 21017BJ  22224.64606471  .00001900  00000-0  14642-3 0  9990","ELEMENT_SET_NO":"999","REF_FRAME":"TEME","GP_ID":"210105702","TLE_LINE2":"2 47778  53.0556 310.1844 0001131  89.3269 270.7850 15.06404080 81043","MEAN_MOTION_DOT":"0.00001900","LAUNCH_DATE":"2021-03-04","CENTER_NAME":"EARTH","SEMIMAJOR_AXIS":"6925.336","PERIOD":"95.592","SITE":"AFETR","CLASSIFICATION_TYPE":"U","ECCENTRICITY":"0.00011310","RCS_SIZE":"LARGE","EPOCH":"2022-08-12T15:30:19.990944","EPHEMERIS_TYPE":"0","MEAN_MOTION":"15.06404080","NORAD_CAT_ID":"47778","REV_AT_EPOCH":"8104","RA_OF_ASC_NODE":"310.1844","COUNTRY_CODE":"US"}];
